Unnamed: 0,NORAD_CAT_ID,OBJECT_NAME,EPOCH,MEAN_MOTION,ECCENTRICITY,INCLINATION,RA_OF_ASC_NODE,ARG_OF_PERICENTER,MEAN_ANOMALY,BSTAR,MEAN_MOTION_DOT,MEAN_MOTION_DDOT,TLE_LINE1,TLE_LINE2,SEMIMAJOR_AXIS,PERIOD,APOGEE,PERIGEE,alltitude
2355928,48481,STARLINK-2706,2022-03-05 21:21:41.260896,15.0640465,0.0001592,53.0547,297.3635,62.4454,297.6697,0.00018285,2.443e-05,0,1 48481U 21040BF  22064.89006089  .00002443  00000-0  18285-3 0  9996,2 48481  53.0547 297.3635 0001592  62.4454 297.6697 15.06404650 45565,6925.334,95.592,548.302,546.097,547.5666492977888
2355360,48481,STARLINK-2706,2022-03-05 19:46:08.969088,15.06402274,0.0001591,53.0548,297.6613,62.338,297.777,0.00015689,2.056e-05,0,1 48481U 21040BF  22064.82371492  .00002056  00000-0  15689-3 0  9997,2 48481  53.0548 297.6613 0001591  62.3380 297.7770 15.06402274 46835,6925.342,95.592,548.308,546.105,547.5778513974489
2352105,48481,STARLINK-2706,2022-03-05 08:37:22.943712,15.06395529,0.0001659,53.0552,299.7459,58.6414,301.4737,9.4598e-05,1.128e-05,0,1 48481U 21040BF  22064.35929333  .00001128  00000-0  94598-4 0  9994,2 48481  53.0552 299.7459 0001659  58.6414 301.4737 15.06395529 45482,6925.362,95.592,548.376,546.078,547.5120021637833
2349508,48481,STARLINK-2706,2022-03-05 00:39:41.270400,15.06393768,0.0001648,53.055,301.2353,61.6046,298.5109,7.9264e-06,-1.64e-06,0,1 48481U 21040BF  22064.02756100 -.00000164  00000-0  79264-5 0  9992,2 48481  53.0550 301.2353 0001648  61.6046 298.5109 15.06393768 45432,6925.368,95.593,548.374,546.091,547.5673271308691
2349507,48481,STARLINK-2706,2022-03-05 00:39:41.270400,15.06393768,0.0001648,53.055,301.2353,61.6046,298.5109,7.9264e-06,-1.64e-06,0,1 48481U 21040BF  22064.02756100 -.00000164  00000-0  79264-5 0  9992,2 48481  53.0550 301.2353 0001648  61.6046 298.5109 15.06393768 46714,6925.368,95.593,548.374,546.091,547.5673271308691
2348398,48481,STARLINK-2706,2022-03-04 19:53:03.672672,15.06394691,0.0001616,53.0541,302.129,63.849,296.2665,-2.6448e-05,-6.75e-06,0,1 48481U 21040BF  22063.82851473 -.00000675  00000-0 -26448-4 0  9991,2 48481  53.0541 302.1290 0001616  63.8490 296.2665 15.06394691 45409,6925.365,95.592,548.349,546.111,547.6169874609279
2343957,48481,STARLINK-2706,2022-03-04 02:22:07.524480,15.06398378,0.0001669,53.054,305.4062,63.9385,296.1776,0.0001112,1.375e-05,0,1 48481U 21040BF  22063.09869820  .00001375  00000-0  11120-3 0  9991,2 48481  53.0540 305.4062 0001669  63.9385 296.1776 15.06398378 45298,6925.354,95.592,548.374,546.063,547.5899331021517
2343956,48481,STARLINK-2706,2022-03-04 02:22:07.524480,15.06398378,0.0001669,53.054,305.4062,63.9385,296.1776,0.0001112,1.375e-05,0,1 48481U 21040BF  22063.09869820  .00001375  00000-0  11120-3 0  9991,2 48481  53.0540 305.4062 0001669  63.9385 296.1776 15.06398378 46570,6925.354,95.592,548.374,546.063,547.5899331021517
2342865,48481,STARLINK-2706,2022-03-03 21:35:30.382080,15.0639906,0.0001692,53.054,306.2998,61.8803,298.2357,7.1274e-05,7.8e-06,0,1 48481U 21040BF  22062.89965720  .00000780  00000-0  71274-4 0  9990,2 48481  53.0540 306.2998 0001692  61.8803 298.2357 15.06399060 45267,6925.351,95.592,548.388,546.045,547.5422870923777
2338162,48481,STARLINK-2706,2022-03-03 02:29:01.989600,15.06405058,0.0001706,53.0541,309.8738,62.0042,298.112,0.00028593,3.98e-05,0,1 48481U 21040BF  22062.10349525  .00003980  00000-0  28593-3 0  9993,2 48481  53.0541 309.8738 0001706  62.0042 298.1120 15.06405058 45142,6925.333,95.592,548.38,546.017,547.5262692880773
2338161,48481,STARLINK-2706,2022-03-03 02:29:01.989600,15.06405058,0.0001706,53.0541,309.8738,62.0042,298.112,0.00028593,3.98e-05,0,1 48481U 21040BF  22062.10349525  .00003980  00000-0  28593-3 0  9993,2 48481  53.0541 309.8738 0001706  62.0042 298.1120 15.06405058 46424,6925.333,95.592,548.38,546.017,547.5262692880773
2337012,48481,STARLINK-2706,2022-03-02 21:42:24.932736,15.06402421,0.0001684,53.0541,310.7673,63.0712,297.0448,0.00018801,2.52e-05,0,1 48481U 21040BF  22061.90445524  .00002520  00000-0  18801-3 0  9996,2 48481  53.0541 310.7673 0001684  63.0712 297.0448 15.06402421 45110,6925.341,95.592,548.372,546.04,547.5603535153527
2334017,48481,STARLINK-2706,2022-03-02 12:09:10.806048,15.06398179,0.0001628,53.0544,312.5541,63.0339,297.0816,4.8204e-05,4.36e-06,0,1 48481U 21040BF  22061.50637507  .00000436  00000-0  48204-4 0  9991,2 48481  53.0544 312.5541 0001628  63.0339 297.0816 15.06398179 45056,6925.354,95.592,548.347,546.092,547.5893458784792
2332179,48481,STARLINK-2706,2022-03-01 23:24:51.979968,15.06395635,0.0001746,53.0544,314.9375,58.3059,301.81,-1.097e-05,-4.45e-06,0,1 48481U 21040BF  22060.97560162 -.00000445  00000-0 -10970-4 0  9994,2 48481  53.0544 314.9375 0001746  58.3059 301.8100 15.06395635 46251,6925.362,95.592,548.436,546.018,547.4744345966061
2331460,48481,STARLINK-2706,2022-03-01 21:49:19.613856,15.06395289,0.0001734,53.0544,315.2352,59.0999,301.016,-1.7779e-05,-5.46e-06,0,1 48481U 21040BF  22060.90925479 -.00000546  00000-0 -17779-4 0  9999,2 48481  53.0544 315.2352 0001734  59.0999 301.0160 15.06395289 44967,6925.363,95.592,548.429,546.027,547.4912620310356
2328719,48481,STARLINK-2706,2022-03-01 12:16:05.127744,15.06405023,0.0001777,53.0547,317.0222,59.7633,300.3532,0.00023019,3.149e-05,0,1 48481U 21040BF  22060.51117046  .00003149  00000-0  23019-3 0  9992,2 48481  53.0547 317.0222 0001777  59.7633 300.3532 15.06405023 44902,6925.333,95.592,548.429,545.968,547.4546357168556
2326567,48481,STARLINK-2706,2022-02-28 23:31:46.416576,15.06400192,0.0001765,53.0548,319.4047,59.7868,300.3295,0.00021224,2.881e-05,0,1 48481U 21040BF  22059.98039834  .00002881  00000-0  21224-3 0  9997,2 48481  53.0548 319.4047 0001765  59.7868 300.3295 15.06400192 46103,6925.348,95.592,548.435,545.991,547.4763196483676
2325814,48481,STARLINK-2706,2022-02-28 21:56:13.895808,15.06403539,0.0001781,53.0547,319.7025,60.4243,299.6923,0.00021878,2.979e-05,0,1 48481U 21040BF  22059.91404972  .00002979  00000-0  21878-3 0  9992,2 48481  53.0547 319.7025 0001781  60.4243 299.6923 15.06403539 44817,6925.338,95.592,548.436,545.969,547.4760567845927
2323144,48481,STARLINK-2706,2022-02-28 12:22:59.507328,15.06408782,0.0001779,53.0548,321.4895,60.9961,299.1206,0.00026932,3.733e-05,0,1 48481U 21040BF  22059.51596652  .00003733  00000-0  26932-3 0  9990,2 48481  53.0548 321.4895 0001779  60.9961 299.1206 15.06408782 44759,6925.322,95.592,548.419,545.955,547.468389867511
2321544,48481,STARLINK-2706,2022-02-28 02:49:45.618240,15.06402717,0.0001776,53.0548,323.2765,61.2273,298.8894,0.00025699,3.549e-05,0,1 48481U 21040BF  22059.11788910  .00003549  00000-0  25699-3 0  9990,2 48481  53.0548 323.2765 0001776  61.2273 298.8894 15.06402717 45978,6925.34,95.592,548.435,545.975,547.4931865344954
2320937,48481,STARLINK-2706,2022-02-27 22:03:08.474976,15.06401252,0.0001748,53.0549,324.17,63.6562,296.4606,9.8698e-05,1.189e-05,0,1 48481U 21040BF  22058.91884809  .00001189  00000-0  98698-4 0  9999,2 48481  53.0549 324.1700 0001748  63.6562 296.4606 15.06401252 44667,6925.345,95.592,548.42,545.999,547.5513922210549
2319028,48481,STARLINK-2706,2022-02-27 17:16:30.975744,15.06418576,0.0001926,53.0554,325.0635,63.7463,296.3724,-0.00024187,-3.884e-05,0,1 48481U 21040BF  22058.71980296 -.00003884  00000-0 -24187-3 0  9991,2 48481  53.0554 325.0635 0001926  63.7463 296.3724 15.06418576 45915,6925.292,95.591,548.49,545.823,547.4493100500299
2317552,48481,STARLINK-2706,2022-02-27 12:29:54.573792,15.06398448,0.0001722,53.0555,325.9571,62.5775,297.5389,5.6642e-05,5.62e-06,0,1 48481U 21040BF  22058.52077053  .00000562  00000-0  56642-4 0  9998,2 48481  53.0555 325.9571 0001722  62.5775 297.5389 15.06398448 44601,6925.353,95.592,548.411,546.026,547.5488124339179
2315564,48481,STARLINK-2706,2022-02-27 02:56:40.712352,15.06390539,0.0001721,53.0555,327.7441,63.4634,296.6532,9.2076e-06,-1.44e-06,0,1 48481U 21040BF  22058.12269343 -.00000144  00000-0  92076-5 0  9998,2 48481  53.0555 327.7441 0001721  63.4634 296.6532 15.06390539 45828,6925.378,95.593,548.434,546.051,547.590841116977
2315139,48481,STARLINK-2706,2022-02-26 22:10:03.329760,15.0639195,0.0001722,53.0555,328.6376,63.6591,296.4575,6.6518e-05,7.09e-06,0,1 48481U 21040BF  22057.92364965  .00000709  00000-0  66518-4 0  9998,2 48481  53.0555 328.6376 0001722  63.6591 296.4575 15.06391950 44518,6925.373,95.593,548.431,546.046,547.5868971825029
2311867,48481,STARLINK-2706,2022-02-26 12:36:48.648384,15.06396119,0.0001705,53.0556,330.4248,62.1621,297.9541,0.00016402,2.162e-05,0,1 48481U 21040BF  22057.52556306  .00002162  00000-0  16402-3 0  9997,2 48481  53.0556 330.4248 0001705  62.1621 297.9541 15.06396119 44451,6925.36,95.592,548.406,546.045,547.554388116432
2309451,48481,STARLINK-2706,2022-02-25 22:16:57.348192,15.0639296,0.0001738,53.0551,333.1055,61.7219,298.3945,-1.6508e-05,-5.27e-06,0,1 48481U 21040BF  22056.92844153 -.00000527  00000-0 -16508-4 0  9993,2 48481  53.0551 333.1055 0001738  61.7219 298.3945 15.06392960 44369,6925.37,95.593,548.439,546.032,547.5428497377094
2308006,48481,STARLINK-2706,2022-02-25 19:05:52.588320,15.06393145,0.0001647,53.0553,333.7012,63.1905,296.9252,-9.4865e-06,-4.23e-06,0,1 48481U 21040BF  22056.79574755 -.00000423  00000-0 -94865-5 0  9994,2 48481  53.0553 333.7012 0001647  63.1905 296.9252 15.06393145 45628,6925.37,95.593,548.375,546.094,547.5999948209228
2305711,48481,STARLINK-2706,2022-02-25 11:08:10.356000,15.06398725,0.000178,53.0558,335.1904,62.7874,297.3296,0.00017171,2.277e-05,0,1 48481U 21040BF  22056.46400875  .00002277  00000-0  17171-3 0  9999,2 48481  53.0558 335.1904 0001780  62.7874 297.3296 15.06398725 44291,6925.352,95.592,548.45,545.985,547.5317680024237
2305710,48481,STARLINK-2706,2022-02-25 11:08:10.356000,15.06398725,0.000178,53.0558,335.1904,62.7874,297.3296,0.00017171,2.277e-05,0,1 48481U 21040BF  22056.46400875  .00002277  00000-0  17171-3 0  9999,2 48481  53.0558 335.1904 0001780  62.7874 297.3296 15.06398725 45573,6925.352,95.592,548.45,545.985,547.5317680024237
